IRIDIUM 57 [-]          
1 25273U 98019B   23316.74248115  .00000576  00000+0  19558-3 0  9991
2 25273  86.4003  29.1601 0002112  93.6638 266.4799 14.34981080341236
IRIDIUM 63 [-]          
1 25286U 98021B   23316.77601773  .00000629  00000+0  21207-3 0  9997
2 25286  86.3962 326.1020 0002221  86.3912 273.7538 14.35485158340263
IRIDIUM 69 [-]          
1 25319U 98026A   23317.13059085  .00000652  00000+0  20221-3 0  9994
2 25319  86.3985 340.9698 0004050 117.3603 242.8008 14.39664112339523
IRIDIUM 73 [-]          
1 25344U 98032C   23316.90199929  .00000870  00000+0  21892-3 0  9992
2 25344  86.4375 293.6484 0002678 102.2780 257.8724 14.50125874346131
IRIDIUM 82 [-]          
1 25467U 98051A   23316.92650722  .00011463  00000+0  66663-3 0  9999
2 25467  86.3982  28.0255 0141945 295.0766  63.5791 15.03717139335776
